STARLINK-33589          
1 62759U 25015B   26028.56087178  .00016205  00000+0  55815-3 0  9992
2 62759  53.1576 149.1050 0000979 103.2776 256.8334 15.30194685 57576
STARLINK-33575          
1 62760U 25015C   26028.60930316  .00027345  00000+0  93194-3 0  9999
2 62760  53.1579 148.6675 0001179  64.6585 295.4538 15.30201547 57581
STARLINK-33584          
1 62761U 25015D   26028.72622339  .00036342  00000+0  12322-2 0  9996
2 62761  53.1575 148.0040 0003523  91.5142 268.6263 15.30221137 58362
STARLINK-33577          
1 62762U 25015E   26028.70616601  .00045482  00000+0  15376-2 0  9997
2 62762  53.1584 147.8779 0001279  71.6619 288.4520 15.30215619 58367
STARLINK-33597          
1 62763U 25015F   26028.63146677  .00050294  00000+0  16992-2 0  9993
2 62763  53.1570 148.8335 0001049  50.6138 309.4955 15.30190660 58342
STARLINK-33579          
1 62764U 25015G   26028.70088185  .00055906  00000+0  18828-2 0  9996
2 62764  53.1590 147.8455 0000923 218.1935 141.9000 15.30246777 58366
STARLINK-33592          
1 62765U 25015H   26028.74310092  .00046527  00000+0  15723-2 0  9996
2 62765  53.1581 148.1093 0001328  55.9489 304.1637 15.30218909 58231
STARLINK-33595          
1 62766U 25015J   26028.71777281  .00039884  00000+0  13506-2 0  9996
2 62766  53.1619 147.9541 0000923  61.3270 298.7824 15.30223638 58363
STARLINK-33572          
1 62767U 25015K   26028.73361745  .00043092  00000+0  14567-2 0  9997
2 62767  53.1585 148.0480 0004887  69.4195 290.7329 15.30234531 58308
STARLINK-33601          
1 62768U 25015L   26028.59664024  .00036974  00000+0  12535-2 0  9992
2 62768  53.1579 148.6152 0001159  96.3309 263.7824 15.30219295 58343
STARLINK-33569          
1 62769U 25015M   26028.71039204  .00041790  00000+0  14144-2 0  9993
2 62769  53.1579 147.9105 0002131  46.9659 313.1520 15.30216390 58362
STARLINK-33594          
1 62770U 25015N   26028.70298148  .00035177  00000+0  11922-2 0  9991
2 62770  53.1585 147.8549 0001286  91.0288 269.0860 15.30254702 58366
STARLINK-33598          
1 62771U 25015P   26028.71249708  .00036744  00000+0  12456-2 0  9995
2 62771  53.1589 147.9194 0001257  60.4592 299.6534 15.30227284 58366
STARLINK-33600          
1 62772U 25015Q   26028.62196824  .00058539  00000+0  19733-2 0  9997
2 62772  53.1571 148.7718 0001324  65.2577 294.8561 15.30196397 58345
STARLINK-33567          
1 62773U 25015R   26028.65880178  .00045232  00000+0  15280-2 0  9992
2 62773  53.1594 148.2889 0004324  52.9647 307.1749 15.30236017 58350
STARLINK-33574          
1 62774U 25015S   26028.71672005  .00040582  00000+0  13738-2 0  9997
2 62774  53.1617 147.9479 0001151  67.0942 293.0180 15.30224506 58080
