[{"OBJECT_NAME":"STARLINK-33589","OBJECT_ID":"2025-015B","EPOCH":"2026-01-28T13:27:39.321792","MEAN_MOTION":15.30194685,"ECCENTRICITY":9.798e-5,"INCLINATION":53.1576,"RA_OF_ASC_NODE":149.105,"ARG_OF_PERICENTER":103.2776,"MEAN_ANOMALY":256.8334,"EPHEMERIS_TYPE":0,"CLASSIFICATION_TYPE":"U","NORAD_CAT_ID":62759,"ELEMENT_SET_NO":999,"REV_AT_EPOCH":5757,"BSTAR":0.00055814516,"MEAN_MOTION_DOT":0.00016205,"MEAN_MOTION_DDOT":0},{"OBJECT_NAME":"STARLINK-33575","OBJECT_ID":"2025-015C","EPOCH":"2026-01-28T14:37:23.793024","MEAN_MOTION":15.30201547,"ECCENTRICITY":0.00011791,"INCLINATION":53.1579,"RA_OF_ASC_NODE":148.6675,"ARG_OF_PERICENTER":64.6585,"MEAN_ANOMALY":295.4538,"EPHEMERIS_TYPE":0,"CLASSIFICATION_TYPE":"U","NORAD_CAT_ID":62760,"ELEMENT_SET_NO":999,"REV_AT_EPOCH":5758,"BSTAR":0.00093194152,"MEAN_MOTION_DOT":0.00027345,"MEAN_MOTION_DDOT":0},{"OBJECT_NAME":"STARLINK-33584","OBJECT_ID":"2025-015D","EPOCH":"2026-01-28T17:25:45.700896","MEAN_MOTION":15.30221137,"ECCENTRICITY":0.0003523,"INCLINATION":53.1575,"RA_OF_ASC_NODE":148.004,"ARG_OF_PERICENTER":91.5142,"MEAN_ANOMALY":268.6263,"EPHEMERIS_TYPE":0,"CLASSIFICATION_TYPE":"U","NORAD_CAT_ID":62761,"ELEMENT_SET_NO":999,"REV_AT_EPOCH":5836,"BSTAR":0.0012322092,"MEAN_MOTION_DOT":0.00036342,"MEAN_MOTION_DDOT":0},{"OBJECT_NAME":"STARLINK-33577","OBJECT_ID":"2025-015E","EPOCH":"2026-01-28T16:56:52.743264","MEAN_MOTION":15.30215619,"ECCENTRICITY":0.00012793,"INCLINATION":53.1584,"RA_OF_ASC_NODE":147.8779,"ARG_OF_PERICENTER":71.6619,"MEAN_ANOMALY":288.452,"EPHEMERIS_TYPE":0,"CLASSIFICATION_TYPE":"U","NORAD_CAT_ID":62762,"ELEMENT_SET_NO":999,"REV_AT_EPOCH":5836,"BSTAR":0.0015376252,"MEAN_MOTION_DOT":0.00045482,"MEAN_MOTION_DDOT":0},{"OBJECT_NAME":"STARLINK-33597","OBJECT_ID":"2025-015F","EPOCH":"2026-01-28T15:09:18.728928","MEAN_MOTION":15.3019066,"ECCENTRICITY":0.00010495,"INCLINATION":53.157,"RA_OF_ASC_NODE":148.8335,"ARG_OF_PERICENTER":50.6138,"MEAN_ANOMALY":309.4955,"EPHEMERIS_TYPE":0,"CLASSIFICATION_TYPE":"U","NORAD_CAT_ID":62763,"ELEMENT_SET_NO":999,"REV_AT_EPOCH":5834,"BSTAR":0.0016992438,"MEAN_MOTION_DOT":0.00050294,"MEAN_MOTION_DDOT":0},{"OBJECT_NAME":"STARLINK-33579","OBJECT_ID":"2025-015G","EPOCH":"2026-01-28T16:49:16.191840","MEAN_MOTION":15.30246777,"ECCENTRICITY":9.235e-5,"INCLINATION":53.159,"RA_OF_ASC_NODE":147.8455,"ARG_OF_PERICENTER":218.1935,"MEAN_ANOMALY":141.9,"EPHEMERIS_TYPE":0,"CLASSIFICATION_TYPE":"U","NORAD_CAT_ID":62764,"ELEMENT_SET_NO":999,"REV_AT_EPOCH":5836,"BSTAR":0.0018828085,"MEAN_MOTION_DOT":0.00055906,"MEAN_MOTION_DDOT":0},{"OBJECT_NAME":"STARLINK-33592","OBJECT_ID":"2025-015H","EPOCH":"2026-01-28T17:50:03.919488","MEAN_MOTION":15.30218909,"ECCENTRICITY":0.00013285,"INCLINATION":53.1581,"RA_OF_ASC_NODE":148.1093,"ARG_OF_PERICENTER":55.9489,"MEAN_ANOMALY":304.1637,"EPHEMERIS_TYPE":0,"CLASSIFICATION_TYPE":"U","NORAD_CAT_ID":62765,"ELEMENT_SET_NO":999,"REV_AT_EPOCH":5823,"BSTAR":0.0015723053,"MEAN_MOTION_DOT":0.00046527,"MEAN_MOTION_DDOT":0},{"OBJECT_NAME":"STARLINK-33595","OBJECT_ID":"2025-015J","EPOCH":"2026-01-28T17:13:35.570784","MEAN_MOTION":15.30223638,"ECCENTRICITY":9.237e-5,"INCLINATION":53.1619,"RA_OF_ASC_NODE":147.9541,"ARG_OF_PERICENTER":61.327,"MEAN_ANOMALY":298.7824,"EPHEMERIS_TYPE":0,"CLASSIFICATION_TYPE":"U","NORAD_CAT_ID":62766,"ELEMENT_SET_NO":999,"REV_AT_EPOCH":5836,"BSTAR":0.001350557,"MEAN_MOTION_DOT":0.00039884,"MEAN_MOTION_DDOT":0},{"OBJECT_NAME":"STARLINK-33572","OBJECT_ID":"2025-015K","EPOCH":"2026-01-28T17:36:24.547680","MEAN_MOTION":15.30234531,"ECCENTRICITY":0.00048878,"INCLINATION":53.1585,"RA_OF_ASC_NODE":148.048,"ARG_OF_PERICENTER":69.4195,"MEAN_ANOMALY":290.7329,"EPHEMERIS_TYPE":0,"CLASSIFICATION_TYPE":"U","NORAD_CAT_ID":62767,"ELEMENT_SET_NO":999,"REV_AT_EPOCH":5830,"BSTAR":0.0014567225,"MEAN_MOTION_DOT":0.00043092,"MEAN_MOTION_DDOT":0},{"OBJECT_NAME":"STARLINK-33601","OBJECT_ID":"2025-015L","EPOCH":"2026-01-28T14:19:09.716736","MEAN_MOTION":15.30219295,"ECCENTRICITY":0.00011593,"INCLINATION":53.1579,"RA_OF_ASC_NODE":148.6152,"ARG_OF_PERICENTER":96.3309,"MEAN_ANOMALY":263.7824,"EPHEMERIS_TYPE":0,"CLASSIFICATION_TYPE":"U","NORAD_CAT_ID":62768,"ELEMENT_SET_NO":999,"REV_AT_EPOCH":5834,"BSTAR":0.0012535202,"MEAN_MOTION_DOT":0.00036974,"MEAN_MOTION_DDOT":0},{"OBJECT_NAME":"STARLINK-33569","OBJECT_ID":"2025-015M","EPOCH":"2026-01-28T17:02:57.872256","MEAN_MOTION":15.3021639,"ECCENTRICITY":0.00021318,"INCLINATION":53.1579,"RA_OF_ASC_NODE":147.9105,"ARG_OF_PERICENTER":46.9659,"MEAN_ANOMALY":313.152,"EPHEMERIS_TYPE":0,"CLASSIFICATION_TYPE":"U","NORAD_CAT_ID":62769,"ELEMENT_SET_NO":999,"REV_AT_EPOCH":5836,"BSTAR":0.0014144127,"MEAN_MOTION_DOT":0.0004179,"MEAN_MOTION_DDOT":0},{"OBJECT_NAME":"STARLINK-33594","OBJECT_ID":"2025-015N","EPOCH":"2026-01-28T16:52:17.599872","MEAN_MOTION":15.30254702,"ECCENTRICITY":0.00012869,"INCLINATION":53.1585,"RA_OF_ASC_NODE":147.8549,"ARG_OF_PERICENTER":91.0288,"MEAN_ANOMALY":269.086,"EPHEMERIS_TYPE":0,"CLASSIFICATION_TYPE":"U","NORAD_CAT_ID":62770,"ELEMENT_SET_NO":999,"REV_AT_EPOCH":5836,"BSTAR":0.001192186,"MEAN_MOTION_DOT":0.00035177,"MEAN_MOTION_DDOT":0},{"OBJECT_NAME":"STARLINK-33598","OBJECT_ID":"2025-015P","EPOCH":"2026-01-28T17:05:59.747712","MEAN_MOTION":15.30227284,"ECCENTRICITY":0.00012575,"INCLINATION":53.1589,"RA_OF_ASC_NODE":147.9194,"ARG_OF_PERICENTER":60.4592,"MEAN_ANOMALY":299.6534,"EPHEMERIS_TYPE":0,"CLASSIFICATION_TYPE":"U","NORAD_CAT_ID":62771,"ELEMENT_SET_NO":999,"REV_AT_EPOCH":5836,"BSTAR":0.0012455535,"MEAN_MOTION_DOT":0.00036744,"MEAN_MOTION_DDOT":0},{"OBJECT_NAME":"STARLINK-33600","OBJECT_ID":"2025-015Q","EPOCH":"2026-01-28T14:55:38.055936","MEAN_MOTION":15.30196397,"ECCENTRICITY":0.00013244,"INCLINATION":53.1571,"RA_OF_ASC_NODE":148.7718,"ARG_OF_PERICENTER":65.2577,"MEAN_ANOMALY":294.8561,"EPHEMERIS_TYPE":0,"CLASSIFICATION_TYPE":"U","NORAD_CAT_ID":62772,"ELEMENT_SET_NO":999,"REV_AT_EPOCH":5834,"BSTAR":0.0019733049,"MEAN_MOTION_DOT":0.00058539,"MEAN_MOTION_DDOT":0},{"OBJECT_NAME":"STARLINK-33567","OBJECT_ID":"2025-015R","EPOCH":"2026-01-28T15:48:40.473792","MEAN_MOTION":15.30236017,"ECCENTRICITY":0.00043241,"INCLINATION":53.1594,"RA_OF_ASC_NODE":148.2889,"ARG_OF_PERICENTER":52.9647,"MEAN_ANOMALY":307.1749,"EPHEMERIS_TYPE":0,"CLASSIFICATION_TYPE":"U","NORAD_CAT_ID":62773,"ELEMENT_SET_NO":999,"REV_AT_EPOCH":5835,"BSTAR":0.0015280299,"MEAN_MOTION_DOT":0.00045232,"MEAN_MOTION_DDOT":0},{"OBJECT_NAME":"STARLINK-33574","OBJECT_ID":"2025-015S","EPOCH":"2026-01-28T17:12:04.612320","MEAN_MOTION":15.30224506,"ECCENTRICITY":0.0001151,"INCLINATION":53.1617,"RA_OF_ASC_NODE":147.9479,"ARG_OF_PERICENTER":67.0942,"MEAN_ANOMALY":293.018,"EPHEMERIS_TYPE":0,"CLASSIFICATION_TYPE":"U","NORAD_CAT_ID":62774,"ELEMENT_SET_NO":999,"REV_AT_EPOCH":5808,"BSTAR":0.0013737906,"MEAN_MOTION_DOT":0.00040582,"MEAN_MOTION_DDOT":0}]
